CCSDS_OMM_VERS = 2.0
CREATION_DATE  = 
ORIGINATOR     = 

OBJECT_NAME    = STARLINK-35979
OBJECT_ID      = 2025-278U
CENTER_NAME    = EARTH
REF_FRAME      = TEME
TIME_SYSTEM    = UTC
MEAN_ELEMENT_THEORY = SGP/SGP4

EPOCH          = 2025-12-27T17:27:39.422304
MEAN_MOTION    = 15.50676069
ECCENTRICITY   = .0002471
INCLINATION    = 43.0017
RA_OF_ASC_NODE = 162.4804
ARG_OF_PERICENTER = 254.6457
MEAN_ANOMALY   = 105.4130

EPHEMERIS_TYPE = 0
CLASSIFICATION_TYPE = U
NORAD_CAT_ID   = 66809
ELEMENT_SET_NO = 999
REV_AT_EPOCH   = 418
BSTAR          = .20256E-2
MEAN_MOTION_DOT = .120765E-2
MEAN_MOTION_DDOT = 0

CCSDS_OMM_VERS = 2.0
CREATION_DATE  = 
ORIGINATOR     = 

OBJECT_NAME    = STARLINK-36046
OBJECT_ID      = 2025-278V
CENTER_NAME    = EARTH
REF_FRAME      = TEME
TIME_SYSTEM    = UTC
MEAN_ELEMENT_THEORY = SGP/SGP4

EPOCH          = 2025-12-27T17:28:38.716032
MEAN_MOTION    = 15.50656871
ECCENTRICITY   = .0003076
INCLINATION    = 43.0020
RA_OF_ASC_NODE = 162.4871
ARG_OF_PERICENTER = 263.3299
MEAN_ANOMALY   = 96.7212

EPHEMERIS_TYPE = 0
CLASSIFICATION_TYPE = U
NORAD_CAT_ID   = 66810
ELEMENT_SET_NO = 999
REV_AT_EPOCH   = 418
BSTAR          = .18969E-2
MEAN_MOTION_DOT = .112879E-2
MEAN_MOTION_DDOT = 0

CCSDS_OMM_VERS = 2.0
CREATION_DATE  = 
ORIGINATOR     = 

OBJECT_NAME    = STARLINK-36045
OBJECT_ID      = 2025-278W
CENTER_NAME    = EARTH
REF_FRAME      = TEME
TIME_SYSTEM    = UTC
MEAN_ELEMENT_THEORY = SGP/SGP4

EPOCH          = 2025-12-27T17:28:09.136128
MEAN_MOTION    = 15.50679350
ECCENTRICITY   = .000319
INCLINATION    = 43.0015
RA_OF_ASC_NODE = 162.4844
ARG_OF_PERICENTER = 265.6374
MEAN_ANOMALY   = 94.4122

EPHEMERIS_TYPE = 0
CLASSIFICATION_TYPE = U
NORAD_CAT_ID   = 66811
ELEMENT_SET_NO = 999
REV_AT_EPOCH   = 418
BSTAR          = .23916E-2
MEAN_MOTION_DOT = .143082E-2
MEAN_MOTION_DDOT = 0

CCSDS_OMM_VERS = 2.0
CREATION_DATE  = 
ORIGINATOR     = 

OBJECT_NAME    = STARLINK-36054
OBJECT_ID      = 2025-278X
CENTER_NAME    = EARTH
REF_FRAME      = TEME
TIME_SYSTEM    = UTC
MEAN_ELEMENT_THEORY = SGP/SGP4

EPOCH          = 2025-12-27T17:27:09.804384
MEAN_MOTION    = 15.50692446
ECCENTRICITY   = .0001801
INCLINATION    = 42.9997
RA_OF_ASC_NODE = 162.4779
ARG_OF_PERICENTER = 254.7116
MEAN_ANOMALY   = 105.3545

EPHEMERIS_TYPE = 0
CLASSIFICATION_TYPE = U
NORAD_CAT_ID   = 66812
ELEMENT_SET_NO = 999
REV_AT_EPOCH   = 418
BSTAR          = .22699E-2
MEAN_MOTION_DOT = .135705E-2
MEAN_MOTION_DDOT = 0

CCSDS_OMM_VERS = 2.0
CREATION_DATE  = 
ORIGINATOR     = 

OBJECT_NAME    = STARLINK-36042
OBJECT_ID      = 2025-278Y
CENTER_NAME    = EARTH
REF_FRAME      = TEME
TIME_SYSTEM    = UTC
MEAN_ELEMENT_THEORY = SGP/SGP4

EPOCH          = 2025-12-27T17:26:40.240032
MEAN_MOTION    = 15.50674661
ECCENTRICITY   = .0002377
INCLINATION    = 43.0019
RA_OF_ASC_NODE = 162.4746
ARG_OF_PERICENTER = 248.8594
MEAN_ANOMALY   = 111.2013

EPHEMERIS_TYPE = 0
CLASSIFICATION_TYPE = U
NORAD_CAT_ID   = 66813
ELEMENT_SET_NO = 999
REV_AT_EPOCH   = 418
BSTAR          = .20383E-2
MEAN_MOTION_DOT = .121528E-2
MEAN_MOTION_DDOT = 0

CCSDS_OMM_VERS = 2.0
CREATION_DATE  = 
ORIGINATOR     = 

OBJECT_NAME    = STARLINK-35984
OBJECT_ID      = 2025-278Z
CENTER_NAME    = EARTH
REF_FRAME      = TEME
TIME_SYSTEM    = UTC
MEAN_ELEMENT_THEORY = SGP/SGP4

EPOCH          = 2025-12-27T20:00:03.000384
MEAN_MOTION    = 15.43419455
ECCENTRICITY   = .0001441
INCLINATION    = 43.0002
RA_OF_ASC_NODE = 161.8808
ARG_OF_PERICENTER = 258.2289
MEAN_ANOMALY   = 326.7128

EPHEMERIS_TYPE = 0
CLASSIFICATION_TYPE = U
NORAD_CAT_ID   = 66814
ELEMENT_SET_NO = 999
REV_AT_EPOCH   = 547
BSTAR          = -.57948E-1
MEAN_MOTION_DOT = -.2362235E-1
MEAN_MOTION_DDOT = 0

CCSDS_OMM_VERS = 2.0
CREATION_DATE  = 
ORIGINATOR     = 

OBJECT_NAME    = STARLINK-35985
OBJECT_ID      = 2025-278AA
CENTER_NAME    = EARTH
REF_FRAME      = TEME
TIME_SYSTEM    = UTC
MEAN_ELEMENT_THEORY = SGP/SGP4

EPOCH          = 2025-12-27T18:56:57.221952
MEAN_MOTION    = 15.50644265
ECCENTRICITY   = .0002263
INCLINATION    = 43.0016
RA_OF_ASC_NODE = 162.0840
ARG_OF_PERICENTER = 262.4248
MEAN_ANOMALY   = 97.6355

EPHEMERIS_TYPE = 0
CLASSIFICATION_TYPE = U
NORAD_CAT_ID   = 66815
ELEMENT_SET_NO = 999
REV_AT_EPOCH   = 540
BSTAR          = .13744E-2
MEAN_MOTION_DOT = .81324E-3
MEAN_MOTION_DDOT = 0

CCSDS_OMM_VERS = 2.0
CREATION_DATE  = 
ORIGINATOR     = 

OBJECT_NAME    = STARLINK-36098
OBJECT_ID      = 2025-278AB
CENTER_NAME    = EARTH
REF_FRAME      = TEME
TIME_SYSTEM    = UTC
MEAN_ELEMENT_THEORY = SGP/SGP4

EPOCH          = 2025-12-27T18:58:55.691040
MEAN_MOTION    = 15.50673307
ECCENTRICITY   = .0003289
INCLINATION    = 43.0009
RA_OF_ASC_NODE = 162.0953
ARG_OF_PERICENTER = 254.5726
MEAN_ANOMALY   = 105.4771

EPHEMERIS_TYPE = 0
CLASSIFICATION_TYPE = U
NORAD_CAT_ID   = 66816
ELEMENT_SET_NO = 999
REV_AT_EPOCH   = 419
BSTAR          = .20427E-2
MEAN_MOTION_DOT = .121798E-2
MEAN_MOTION_DDOT = 0

CCSDS_OMM_VERS = 2.0
CREATION_DATE  = 
ORIGINATOR     = 

OBJECT_NAME    = STARLINK-35995
OBJECT_ID      = 2025-278AC
CENTER_NAME    = EARTH
REF_FRAME      = TEME
TIME_SYSTEM    = UTC
MEAN_ELEMENT_THEORY = SGP/SGP4

EPOCH          = 2025-12-27T17:25:11.241120
MEAN_MOTION    = 15.50657476
ECCENTRICITY   = .0003311
INCLINATION    = 43.0010
RA_OF_ASC_NODE = 162.4663
ARG_OF_PERICENTER = 267.9036
MEAN_ANOMALY   = 92.1445

EPHEMERIS_TYPE = 0
CLASSIFICATION_TYPE = U
NORAD_CAT_ID   = 66817
ELEMENT_SET_NO = 999
REV_AT_EPOCH   = 418
BSTAR          = .19525E-2
MEAN_MOTION_DOT = .116254E-2
MEAN_MOTION_DDOT = 0

CCSDS_OMM_VERS = 2.0
CREATION_DATE  = 
ORIGINATOR     = 

OBJECT_NAME    = STARLINK-35994
OBJECT_ID      = 2025-278AD
CENTER_NAME    = EARTH
REF_FRAME      = TEME
TIME_SYSTEM    = UTC
MEAN_ELEMENT_THEORY = SGP/SGP4

EPOCH          = 2025-12-27T20:00:03.000384
MEAN_MOTION    = 15.40660188
ECCENTRICITY   = .0002294
INCLINATION    = 43.0000
RA_OF_ASC_NODE = 161.9964
ARG_OF_PERICENTER = 291.9996
MEAN_ANOMALY   = 245.6178

EPHEMERIS_TYPE = 0
CLASSIFICATION_TYPE = U
NORAD_CAT_ID   = 66818
ELEMENT_SET_NO = 999
REV_AT_EPOCH   = 538
BSTAR          = .20881E-2
MEAN_MOTION_DOT = .87819E-3
MEAN_MOTION_DDOT = 0

CCSDS_OMM_VERS = 2.0
CREATION_DATE  = 
ORIGINATOR     = 

OBJECT_NAME    = STARLINK-35989
OBJECT_ID      = 2025-278AE
CENTER_NAME    = EARTH
REF_FRAME      = TEME
TIME_SYSTEM    = UTC
MEAN_ELEMENT_THEORY = SGP/SGP4

EPOCH          = 2025-12-27T17:24:41.658624
MEAN_MOTION    = 15.50659758
ECCENTRICITY   = .0003746
INCLINATION    = 43.0004
RA_OF_ASC_NODE = 162.4642
ARG_OF_PERICENTER = 267.2392
MEAN_ANOMALY   = 92.8039

EPHEMERIS_TYPE = 0
CLASSIFICATION_TYPE = U
NORAD_CAT_ID   = 66819
ELEMENT_SET_NO = 999
REV_AT_EPOCH   = 418
BSTAR          = .20576E-2
MEAN_MOTION_DOT = .122648E-2
MEAN_MOTION_DDOT = 0

CCSDS_OMM_VERS = 2.0
CREATION_DATE  = 
ORIGINATOR     = 

OBJECT_NAME    = KOMPSAT-7
OBJECT_ID      = 2025-279A
CENTER_NAME    = EARTH
REF_FRAME      = TEME
TIME_SYSTEM    = UTC
MEAN_ELEMENT_THEORY = SGP/SGP4

EPOCH          = 2025-12-27T06:44:23.364672
MEAN_MOTION    = 15.00856737
ECCENTRICITY   = .00099979
INCLINATION    = 97.6456
RA_OF_ASC_NODE = 306.8974
ARG_OF_PERICENTER = 208.4889
MEAN_ANOMALY   = 151.5790

EPHEMERIS_TYPE = 0
CLASSIFICATION_TYPE = U
NORAD_CAT_ID   = 66820
ELEMENT_SET_NO = 999
REV_AT_EPOCH   = 383
BSTAR          = .26762105E-3
MEAN_MOTION_DOT = .3347E-4
MEAN_MOTION_DDOT = 0

