STARLINK-35979          
1 66809U 25278U   25361.72753961  .00120765  00000+0  20256-2 0  9997
2 66809  43.0017 162.4804 0002471 254.6457 105.4130 15.50676069  4180
STARLINK-36046          
1 66810U 25278V   25361.72822588  .00112879  00000+0  18969-2 0  9996
2 66810  43.0020 162.4871 0003076 263.3299  96.7212 15.50656871  4185
STARLINK-36045          
1 66811U 25278W   25361.72788352  .00143082  00000+0  23916-2 0  9995
2 66811  43.0015 162.4844 0003190 265.6374  94.4122 15.50679350  4188
STARLINK-36054          
1 66812U 25278X   25361.72719681  .00135705  00000+0  22699-2 0  9995
2 66812  42.9997 162.4779 0001801 254.7116 105.3545 15.50692446  4185
STARLINK-36042          
1 66813U 25278Y   25361.72685463  .00121528  00000+0  20383-2 0  9992
2 66813  43.0019 162.4746 0002377 248.8594 111.2013 15.50674661  4185
STARLINK-35984          
1 66814U 25278Z   25361.83336806 -.02362235  00000+0 -57948-1 0  9991
2 66814  43.0002 161.8808 0001441 258.2289 326.7128 15.43419455  5470
STARLINK-35985          
1 66815U 25278AA  25361.78955118  .00081324  00000+0  13744-2 0  9999
2 66815  43.0016 162.0840 0002263 262.4248  97.6355 15.50644265  5406
STARLINK-36098          
1 66816U 25278AB  25361.79092235  .00121798  00000+0  20427-2 0  9999
2 66816  43.0009 162.0953 0003289 254.5726 105.4771 15.50673307  4190
STARLINK-35995          
1 66817U 25278AC  25361.72582455  .00116254  00000+0  19525-2 0  9999
2 66817  43.0010 162.4663 0003311 267.9036  92.1445 15.50657476  4181
STARLINK-35994          
1 66818U 25278AD  25361.83336806  .00087819  00000+0  20881-2 0  9990
2 66818  43.0000 161.9964 0002294 291.9996 245.6178 15.40660188  5384
STARLINK-35989          
1 66819U 25278AE  25361.72548216  .00122648  00000+0  20576-2 0  9990
2 66819  43.0004 162.4642 0003746 267.2392  92.8039 15.50659758  4184
KOMPSAT-7               
1 66820U 25279A   25361.28082598  .00003347  00000+0  26762-3 0  9998
2 66820  97.6456 306.8974 0009997 208.4889 151.5790 15.00856737  3835
